#dP2018  2 12  0  0  0.00000000      96 __u+U IGS08 FIT  IAC
## 1988  86400.00000000   900.00000000 58161 0.0000000000000
+   87   C01C02C03C04C05C06C07C08C09C10C11C12C13C14E01E02E03
+        E04E05E07E08E09E11E12E14E18E19E24E26E30G01G02G03G05
+        G06G07G08G09G10G11G12G13G14G15G16G17G19G20G21G22G23
+        G24G25G26G27G28G29G30G31G32J01J02J03R01R02R03R04R05
+        R06R07R08R09R10R11R13R14R15R16R17R18R19R20R21R22R23
+        R24R26  0  0  0  0  0  0  0  0  0  0  0  0  0  0  0
++        12 12 12 12 12  8  8  8  8  8  8  8  8  7  7  7  7
++         7  7  7  7  7  7  7  7  7  7  7  7  7  3  3  3  3
++         3  3  3  3  3  3  3  3  3  3  3  3  3  3  3  3  3
++         3  3  3  3  3  3  3  3  3 11 14 12  5  5  5  5  5
++         5  5  7  5  5  5  5  5  5  5  5  5  5  5  7  5  5
++         5  8  0  0  0  0  0  0  0  0  0  0  0  0  0  0  0
%c M  cc GPS ccc cccc cccc cccc cccc ccccc ccccc ccccc ccccc
%c cc cc ccc ccc cccc cccc cccc cccc ccccc ccccc ccccc ccccc
%f  1.2500000  1.025000000  0.00000000000  0.000000000000000
%f  0.0000000  0.000000000  0.00000000000  0.000000000000000
%i    0    0    0    0      0      0      0      0         0
%i    0    0    0    0      0      0      0      0         0
/* INFORMATION & ANALYSIS CENTER (IAC)            FINAL DATA
/* S/V CLOCKS ARE ALIGNED TO GPS & GLONASS TIME RESPECTIVELY
/* USING THE BROADCAST EPHEMERIS                            
/* PCV:IGS14_1984 OL/AL:FES2004  NONE     YN ORB:CoN CLK:CoN
*  2018 02 12 22  0  0.00000000
PC01 -32291.988492  27085.930336   -918.762231    359.452389
PC02   4476.506974  41916.978152   1076.018455   -222.136116
PC03 -14787.354277  39507.393539   -118.944484   -102.449114
PC04 -39604.613066  14391.942993   -415.852789   -113.987179
PC05  21936.622782  35999.505952   1436.671002   -149.797400
PC06  -8566.999921  35503.881762  21577.634195   -680.482187
PC07 -16473.738405  21031.069008 -32571.092936   -309.287033
PC08 -23635.088493  32350.785393  12796.887500    171.911536
PC09    366.932099  41417.263925   8870.798811   -409.552625
PC10   -376.579627  25860.856491 -33152.690783    -12.049252
PC11 -12095.530286 -10365.368370 -22859.029787   -389.296140
PC12   1395.349048 -24935.002636 -12485.195508    380.339993
PC13 -11279.627820  32747.348680  23914.601172   -201.499350
PC14 -19926.186450 -18421.544900   6421.074569    206.438180
PE01 -27720.415043    732.678593 -10350.051509   -275.290007
PE02  27723.976886   -741.786374  10363.674626      4.532226
PE03  17029.576344  -2830.138208 -24046.597867      1.548531
PE04  -6822.995025  22178.163982  18380.654074     25.239324
PE05  17289.974095  18244.657971 -15637.816459    323.162954
PE07  -7430.702176 -28591.141635  -1903.174775     85.277127
PE08   6517.213561 -22189.623719 -18479.288102   6643.012813
PE09   7678.919027  28513.091593   1980.536054   6876.628716
PE11  -1075.067781  21558.184179  20268.449835   1849.358612
PE12 -17362.168338  23582.802544   4389.318835   3493.807705
PE14   -687.287516  26708.460084   5764.087839   6632.044463
PE18 -10974.310974 -20956.862241 -18527.217560   6432.209968
PE19 -17410.809510    678.099994  23925.676610     19.350752
PE24   9071.050499  17072.786676 -22431.743778   6865.632070
PE26 -15582.756221  -7235.235091 -24093.178024   6277.227315
PE30  13195.611936 -12614.136524  23296.038273   6082.030970
PG01   1061.938465 -16054.679883 -21214.838699    -28.493039
PG02 -20871.764672  14993.839464   6652.820808    201.989819
PG03  -7831.010667 -20023.713744 -15643.024199      8.120435
PG05 -11856.086017  10268.712498  21350.187349    -14.477097
PG06 -25244.918786   6320.919077  -5316.736796    414.546157
PG07 -15573.614157  -8988.769767  19891.930891    237.677971
PG08   5144.738709 -25857.508574   2603.084891    -90.977277
PG09  -9572.651363 -18310.285089  16646.366746    500.578582
PG10  22934.073695   8692.376745 -10350.017323    159.112753
PG11   2389.232435 -21122.025770 -16565.245812   -736.134397
PG12   5089.855014  19760.250421 -17288.420286    350.618656
PG13 -12329.054370  21558.357804   9311.443062    -95.590145
PG14  15720.934321  -8258.147210 -19417.781903    -93.855282
PG15  -2715.095977  26152.145104   1515.126087   -357.035518
PG16  11942.068633  -8674.981893  21967.224943     32.369520
PG17 -14504.539970  -1698.429157 -21798.032397   -123.684784
PG19 -15839.994767   6717.269309 -20571.454803   -457.488305
PG20   7678.746907  19304.543003  16431.019630    500.744156
PG21  17788.900976   7186.495476  19184.969032   -431.104090
PG22   -866.470510 -18163.323256 -19111.862638   -289.495626
PG23  -2090.803676 -25293.430146   7306.122342   -218.963904
PG24  -4042.488256  17450.073220 -19634.450387    -45.979422
PG25  16783.365979  19492.950895  -7268.228917   -537.756487
PG26  19687.020311   -891.296233  17864.525110   -252.750395
PG27  12161.674868 -18775.770629  14062.178505    366.866375
PG28 -21480.586517 -13457.214798  -7224.994182    688.238495
PG29   5414.129238  21643.112285  14416.277535    497.280381
PG30 -22015.668527  -3582.898253  14531.359331    104.116635
PG31  25677.938524  -6483.935570  -3979.113794    142.160543
PG32  15275.870454   1009.717325 -21678.021135   -532.346147
PJ01 -25856.549689  22498.464784  29678.063382   -108.219613
PJ02 -34267.185371  17280.295018 -13019.071575     -0.083551
PJ03 -20007.877771  30109.499111 -17010.424674      0.083576
PR01   6035.365330  22492.554893  10388.522580     22.001186
PR02  14378.316873  19010.647055  -9118.472489    294.931795
PR03  13352.944638   3843.862852 -21366.834472    123.976832
PR04   4169.822364 -13900.810731 -20962.105344    249.683737
PR05  -7101.229747 -22857.665793  -8842.056208   -246.913468
PR06 -14890.888154 -18156.820583   9913.856759    126.907928
PR07 -13209.188556  -3353.731180  21583.510219    -29.950232
PR08  -4626.854138  13369.013237  21272.097873     38.358780
PR09 -19990.550245  -8042.208401  13711.407079     48.238759
PR10 -25305.692405   -158.549654  -3520.617054     18.122010
PR11 -15489.275502   7865.527547 -18681.268959    -21.678216
PR13  20572.694636   7254.675792 -13242.497695     -7.410669
PR14  25306.183694    190.146398   3191.384320     24.645787
PR15  18502.000926  -6300.785020  16457.552059     -6.357954
PR16  -2603.355352 -10998.430243  22834.637404     85.464232
PR17  15534.106709  -7609.882140  18775.369523    108.722613
PR18  15554.436837 -19674.764592   4483.610095    184.607957
PR19   7320.479907 -20788.533915 -12832.510443    -44.403444
PR20  -6380.853801  -9053.171541 -22959.474588   -326.967453
PR21 -15509.259039   7861.645274 -18646.561746     29.348668
PR22 -15105.808353  20480.566110  -2561.783682    -18.291797
PR23  -4607.016722  19677.176460  15567.770099    135.909164
PR24   6984.428027   8424.969394  23025.032262   -162.375341
PR26  -6415.197299  -9193.449868 -22897.347739     -0.683558
EOF
